CCSDS_OMM_VERS = 2.0
CREATION_DATE  = 
ORIGINATOR     = 

OBJECT_NAME    = STARLINK-36544
OBJECT_ID      = 2026-012AA
CENTER_NAME    = EARTH
REF_FRAME      = TEME
TIME_SYSTEM    = UTC
MEAN_ELEMENT_THEORY = SGP/SGP4

EPOCH          = 2026-02-15T12:00:01.999296
MEAN_MOTION    = 15.34332209
ECCENTRICITY   = .0001504
INCLINATION    = 43.0000
RA_OF_ASC_NODE = 79.7271
ARG_OF_PERICENTER = 296.2547
MEAN_ANOMALY   = 223.1671

EPHEMERIS_TYPE = 0
CLASSIFICATION_TYPE = U
NORAD_CAT_ID   = 67517
ELEMENT_SET_NO = 999
REV_AT_EPOCH   = 550
BSTAR          = -.56107E-1
MEAN_MOTION_DOT = -.1722778E-1
MEAN_MOTION_DDOT = 0

CCSDS_OMM_VERS = 2.0
CREATION_DATE  = 
ORIGINATOR     = 

OBJECT_NAME    = STARLINK-36412
OBJECT_ID      = 2026-012AB
CENTER_NAME    = EARTH
REF_FRAME      = TEME
TIME_SYSTEM    = UTC
MEAN_ELEMENT_THEORY = SGP/SGP4

EPOCH          = 2026-02-15T12:00:01.999296
MEAN_MOTION    = 15.39246269
ECCENTRICITY   = .0000977
INCLINATION    = 42.9997
RA_OF_ASC_NODE = 79.5777
ARG_OF_PERICENTER = 303.3554
MEAN_ANOMALY   = 276.4816

EPHEMERIS_TYPE = 0
CLASSIFICATION_TYPE = U
NORAD_CAT_ID   = 67518
ELEMENT_SET_NO = 999
REV_AT_EPOCH   = 544
BSTAR          = -.50124E-1
MEAN_MOTION_DOT = -.1798104E-1
MEAN_MOTION_DDOT = 0

CCSDS_OMM_VERS = 2.0
CREATION_DATE  = 
ORIGINATOR     = 

OBJECT_NAME    = STARLINK-36415
OBJECT_ID      = 2026-012AC
CENTER_NAME    = EARTH
REF_FRAME      = TEME
TIME_SYSTEM    = UTC
MEAN_ELEMENT_THEORY = SGP/SGP4

EPOCH          = 2026-02-15T12:00:01.999296
MEAN_MOTION    = 15.40130373
ECCENTRICITY   = .0000912
INCLINATION    = 42.9998
RA_OF_ASC_NODE = 79.5273
ARG_OF_PERICENTER = 304.6806
MEAN_ANOMALY   = 295.1140

EPHEMERIS_TYPE = 0
CLASSIFICATION_TYPE = U
NORAD_CAT_ID   = 67519
ELEMENT_SET_NO = 999
REV_AT_EPOCH   = 566
BSTAR          = -.49808E-1
MEAN_MOTION_DOT = -.1835867E-1
MEAN_MOTION_DDOT = 0

CCSDS_OMM_VERS = 2.0
CREATION_DATE  = 
ORIGINATOR     = 

OBJECT_NAME    = STARLINK-36547
OBJECT_ID      = 2026-012AD
CENTER_NAME    = EARTH
REF_FRAME      = TEME
TIME_SYSTEM    = UTC
MEAN_ELEMENT_THEORY = SGP/SGP4

EPOCH          = 2026-02-15T12:00:01.999296
MEAN_MOTION    = 15.38814442
ECCENTRICITY   = .0001161
INCLINATION    = 42.9999
RA_OF_ASC_NODE = 79.6112
ARG_OF_PERICENTER = 293.3021
MEAN_ANOMALY   = 272.4296

EPHEMERIS_TYPE = 0
CLASSIFICATION_TYPE = U
NORAD_CAT_ID   = 67520
ELEMENT_SET_NO = 999
REV_AT_EPOCH   = 544
BSTAR          = -.53591E-1
MEAN_MOTION_DOT = -.188532E-1
MEAN_MOTION_DDOT = 0

CCSDS_OMM_VERS = 2.0
CREATION_DATE  = 
ORIGINATOR     = 

OBJECT_NAME    = STARLINK-36444
OBJECT_ID      = 2026-012AE
CENTER_NAME    = EARTH
REF_FRAME      = TEME
TIME_SYSTEM    = UTC
MEAN_ELEMENT_THEORY = SGP/SGP4

EPOCH          = 2026-02-15T12:00:01.999296
MEAN_MOTION    = 15.40254719
ECCENTRICITY   = .000136
INCLINATION    = 43.0006
RA_OF_ASC_NODE = 79.7039
ARG_OF_PERICENTER = 301.9850
MEAN_ANOMALY   = 226.6412

EPHEMERIS_TYPE = 0
CLASSIFICATION_TYPE = U
NORAD_CAT_ID   = 67521
ELEMENT_SET_NO = 999
REV_AT_EPOCH   = 544
BSTAR          = -.50477E-1
MEAN_MOTION_DOT = -.1865189E-1
MEAN_MOTION_DDOT = 0

CCSDS_OMM_VERS = 2.0
CREATION_DATE  = 
ORIGINATOR     = 

OBJECT_NAME    = HULIANWANG DIGUI-146
OBJECT_ID      = 2026-013A
CENTER_NAME    = EARTH
REF_FRAME      = TEME
TIME_SYSTEM    = UTC
MEAN_ELEMENT_THEORY = SGP/SGP4

EPOCH          = 2026-02-11T08:20:06.010656
MEAN_MOTION    = 13.78804724
ECCENTRICITY   = .00032318
INCLINATION    = 50.0087
RA_OF_ASC_NODE = 93.2680
ARG_OF_PERICENTER = 354.9738
MEAN_ANOMALY   = 5.1123

EPHEMERIS_TYPE = 0
CLASSIFICATION_TYPE = U
NORAD_CAT_ID   = 67522
ELEMENT_SET_NO = 999
REV_AT_EPOCH   = 321
BSTAR          = .98638908E-4
MEAN_MOTION_DOT = -.41E-6
MEAN_MOTION_DDOT = 0

CCSDS_OMM_VERS = 2.0
CREATION_DATE  = 
ORIGINATOR     = 

OBJECT_NAME    = HULIANWANG DIGUI-147
OBJECT_ID      = 2026-013B
CENTER_NAME    = EARTH
REF_FRAME      = TEME
TIME_SYSTEM    = UTC
MEAN_ELEMENT_THEORY = SGP/SGP4

EPOCH          = 2026-02-12T06:55:14.578752
MEAN_MOTION    = 13.77597803
ECCENTRICITY   = .0001508
INCLINATION    = 50.0062
RA_OF_ASC_NODE = 89.5622
ARG_OF_PERICENTER = 9.6650
MEAN_ANOMALY   = 350.4272

EPHEMERIS_TYPE = 0
CLASSIFICATION_TYPE = U
NORAD_CAT_ID   = 67523
ELEMENT_SET_NO = 999
REV_AT_EPOCH   = 334
BSTAR          = .92853E-4
MEAN_MOTION_DOT = -.48E-6
MEAN_MOTION_DDOT = 0

CCSDS_OMM_VERS = 2.0
CREATION_DATE  = 
ORIGINATOR     = 

OBJECT_NAME    = HULIANWANG DIGUI-148
OBJECT_ID      = 2026-013C
CENTER_NAME    = EARTH
REF_FRAME      = TEME
TIME_SYSTEM    = UTC
MEAN_ELEMENT_THEORY = SGP/SGP4

EPOCH          = 2026-02-12T03:19:27.681312
MEAN_MOTION    = 13.78242664
ECCENTRICITY   = .00003997
INCLINATION    = 50.0082
RA_OF_ASC_NODE = 90.1254
ARG_OF_PERICENTER = 334.8113
MEAN_ANOMALY   = 25.2761

EPHEMERIS_TYPE = 0
CLASSIFICATION_TYPE = U
NORAD_CAT_ID   = 67524
ELEMENT_SET_NO = 999
REV_AT_EPOCH   = 332
BSTAR          = .11328643E-3
MEAN_MOTION_DOT = -.27E-6
MEAN_MOTION_DDOT = 0

CCSDS_OMM_VERS = 2.0
CREATION_DATE  = 
ORIGINATOR     = 

OBJECT_NAME    = HULIANWANG DIGUI-149
OBJECT_ID      = 2026-013D
CENTER_NAME    = EARTH
REF_FRAME      = TEME
TIME_SYSTEM    = UTC
MEAN_ELEMENT_THEORY = SGP/SGP4

EPOCH          = 2026-02-12T01:29:49.914528
MEAN_MOTION    = 13.78784861
ECCENTRICITY   = .00011883
INCLINATION    = 50.0083
RA_OF_ASC_NODE = 90.3862
ARG_OF_PERICENTER = 75.5776
MEAN_ANOMALY   = 284.5250

EPHEMERIS_TYPE = 0
CLASSIFICATION_TYPE = U
NORAD_CAT_ID   = 67525
ELEMENT_SET_NO = 999
REV_AT_EPOCH   = 331
BSTAR          = .10606856E-3
MEAN_MOTION_DOT = -.33E-6
MEAN_MOTION_DDOT = 0

CCSDS_OMM_VERS = 2.0
CREATION_DATE  = 
ORIGINATOR     = 

OBJECT_NAME    = HULIANWANG DIGUI-150
OBJECT_ID      = 2026-013E
CENTER_NAME    = EARTH
REF_FRAME      = TEME
TIME_SYSTEM    = UTC
MEAN_ELEMENT_THEORY = SGP/SGP4

EPOCH          = 2026-02-12T06:33:03.442464
MEAN_MOTION    = 13.78631848
ECCENTRICITY   = .00021558
INCLINATION    = 50.0069
RA_OF_ASC_NODE = 89.4842
ARG_OF_PERICENTER = 6.5718
MEAN_ANOMALY   = 353.5203

EPHEMERIS_TYPE = 0
CLASSIFICATION_TYPE = U
NORAD_CAT_ID   = 67526
ELEMENT_SET_NO = 999
REV_AT_EPOCH   = 336
BSTAR          = .10159006E-3
MEAN_MOTION_DOT = -.38E-6
MEAN_MOTION_DDOT = 0

CCSDS_OMM_VERS = 2.0
CREATION_DATE  = 
ORIGINATOR     = 

OBJECT_NAME    = HULIANWANG DIGUI-151
OBJECT_ID      = 2026-013F
CENTER_NAME    = EARTH
REF_FRAME      = TEME
TIME_SYSTEM    = UTC
MEAN_ELEMENT_THEORY = SGP/SGP4

EPOCH          = 2026-02-12T06:25:12.355968
MEAN_MOTION    = 13.80322384
ECCENTRICITY   = .0005437
INCLINATION    = 50.0190
RA_OF_ASC_NODE = 89.4720
ARG_OF_PERICENTER = 14.0872
MEAN_ANOMALY   = 346.0173

EPHEMERIS_TYPE = 0
CLASSIFICATION_TYPE = U
NORAD_CAT_ID   = 67527
ELEMENT_SET_NO = 999
REV_AT_EPOCH   = 334
BSTAR          = .12371E-3
MEAN_MOTION_DOT = -.13E-6
MEAN_MOTION_DDOT = 0

CCSDS_OMM_VERS = 2.0
CREATION_DATE  = 
ORIGINATOR     = 

OBJECT_NAME    = HULIANWANG DIGUI-152
OBJECT_ID      = 2026-013G
CENTER_NAME    = EARTH
REF_FRAME      = TEME
TIME_SYSTEM    = UTC
MEAN_ELEMENT_THEORY = SGP/SGP4

EPOCH          = 2026-02-12T01:17:07.719648
MEAN_MOTION    = 13.79260730
ECCENTRICITY   = .0002755
INCLINATION    = 50.0004
RA_OF_ASC_NODE = 90.3132
ARG_OF_PERICENTER = 114.3878
MEAN_ANOMALY   = 245.7303

EPHEMERIS_TYPE = 0
CLASSIFICATION_TYPE = U
NORAD_CAT_ID   = 67528
ELEMENT_SET_NO = 999
REV_AT_EPOCH   = 331
BSTAR          = .11798E-3
MEAN_MOTION_DOT = -.2E-6
MEAN_MOTION_DDOT = 0

