STARLINK-36544          
1 67517U 26012AA  26046.50002314 -.01722778  00000+0 -56107-1 0  9995
2 67517  43.0000  79.7271 0001504 296.2547 223.1671 15.34332209  5507
STARLINK-36412          
1 67518U 26012AB  26046.50002314 -.01798104  00000+0 -50124-1 0  9995
2 67518  42.9997  79.5777 0000977 303.3554 276.4816 15.39246269  5441
STARLINK-36415          
1 67519U 26012AC  26046.50002314 -.01835867  00000+0 -49808-1 0  9991
2 67519  42.9998  79.5273 0000912 304.6806 295.1140 15.40130373  5669
STARLINK-36547          
1 67520U 26012AD  26046.50002314 -.01885320  00000+0 -53591-1 0  9996
2 67520  42.9999  79.6112 0001161 293.3021 272.4296 15.38814442  5444
STARLINK-36444          
1 67521U 26012AE  26046.50002314 -.01865189  00000+0 -50477-1 0  9998
2 67521  43.0006  79.7039 0001360 301.9850 226.6412 15.40254719  5441
HULIANWANG DIGUI-146    
1 67522U 26013A   26042.34729179 -.00000041  00000+0  98639-4 0  9994
2 67522  50.0087  93.2680 0003231 354.9738   5.1123 13.78804724  3212
HULIANWANG DIGUI-147    
1 67523U 26013B   26043.28836318 -.00000048  00000+0  92853-4 0  9992
2 67523  50.0062  89.5622 0001508   9.6650 350.4272 13.77597803  3343
HULIANWANG DIGUI-148    
1 67524U 26013C   26043.13851483 -.00000027  00000+0  11329-3 0  9992
2 67524  50.0082  90.1254 0000399 334.8113  25.2761 13.78242664  3320
HULIANWANG DIGUI-149    
1 67525U 26013D   26043.06238327 -.00000033  00000+0  10607-3 0  9996
2 67525  50.0083  90.3862 0001188  75.5776 284.5250 13.78784861  3312
HULIANWANG DIGUI-150    
1 67526U 26013E   26043.27295651 -.00000038  00000+0  10159-3 0  9990
2 67526  50.0069  89.4842 0002155   6.5718 353.5203 13.78631848  3365
HULIANWANG DIGUI-151    
1 67527U 26013F   26043.26750412 -.00000013  00000+0  12371-3 0  9992
2 67527  50.0190  89.4720 0005437  14.0872 346.0173 13.80322384  3343
HULIANWANG DIGUI-152    
1 67528U 26013G   26043.05356157 -.00000020  00000+0  11798-3 0  9998
2 67528  50.0004  90.3132 0002755 114.3878 245.7303 13.79260730  3317
